CCSDS_OMM_VERS = 2.0
CREATION_DATE  = 
ORIGINATOR     = 

OBJECT_NAME    = STARLINK-36840
OBJECT_ID      = 2026-034A
CENTER_NAME    = EARTH
REF_FRAME      = TEME
TIME_SYSTEM    = UTC
MEAN_ELEMENT_THEORY = SGP/SGP4

EPOCH          = 2026-03-12T22:56:22.970688
MEAN_MOTION    = 15.80892130
ECCENTRICITY   = .0001709
INCLINATION    = 53.1582
RA_OF_ASC_NODE = 194.9902
ARG_OF_PERICENTER = 49.7018
MEAN_ANOMALY   = 310.4154

EPHEMERIS_TYPE = 0
CLASSIFICATION_TYPE = U
NORAD_CAT_ID   = 67850
ELEMENT_SET_NO = 999
REV_AT_EPOCH   = 445
BSTAR          = .44602E-3
MEAN_MOTION_DOT = .88316E-3
MEAN_MOTION_DDOT = 0

CCSDS_OMM_VERS = 2.0
CREATION_DATE  = 
ORIGINATOR     = 

OBJECT_NAME    = STARLINK-36348
OBJECT_ID      = 2026-034B
CENTER_NAME    = EARTH
REF_FRAME      = TEME
TIME_SYSTEM    = UTC
MEAN_ELEMENT_THEORY = SGP/SGP4

EPOCH          = 2026-03-12T22:55:17.876928
MEAN_MOTION    = 15.80934226
ECCENTRICITY   = .0000911
INCLINATION    = 53.1584
RA_OF_ASC_NODE = 194.9845
ARG_OF_PERICENTER = 65.9242
MEAN_ANOMALY   = 294.1876

EPHEMERIS_TYPE = 0
CLASSIFICATION_TYPE = U
NORAD_CAT_ID   = 67851
ELEMENT_SET_NO = 999
REV_AT_EPOCH   = 445
BSTAR          = .69571E-3
MEAN_MOTION_DOT = .139239E-2
MEAN_MOTION_DDOT = 0

CCSDS_OMM_VERS = 2.0
CREATION_DATE  = 
ORIGINATOR     = 

OBJECT_NAME    = STARLINK-36785
OBJECT_ID      = 2026-034D
CENTER_NAME    = EARTH
REF_FRAME      = TEME
TIME_SYSTEM    = UTC
MEAN_ELEMENT_THEORY = SGP/SGP4

EPOCH          = 2026-03-12T22:53:08.537856
MEAN_MOTION    = 15.80945493
ECCENTRICITY   = .0001893
INCLINATION    = 53.1583
RA_OF_ASC_NODE = 194.9742
ARG_OF_PERICENTER = 45.2124
MEAN_ANOMALY   = 314.9052

EPHEMERIS_TYPE = 0
CLASSIFICATION_TYPE = U
NORAD_CAT_ID   = 67853
ELEMENT_SET_NO = 999
REV_AT_EPOCH   = 445
BSTAR          = .10365E-2
MEAN_MOTION_DOT = .209615E-2
MEAN_MOTION_DDOT = 0

CCSDS_OMM_VERS = 2.0
CREATION_DATE  = 
ORIGINATOR     = 

OBJECT_NAME    = STARLINK-36608
OBJECT_ID      = 2026-034E
CENTER_NAME    = EARTH
REF_FRAME      = TEME
TIME_SYSTEM    = UTC
MEAN_ELEMENT_THEORY = SGP/SGP4

EPOCH          = 2026-03-12T21:21:01.240416
MEAN_MOTION    = 15.80993913
ECCENTRICITY   = .0001454
INCLINATION    = 53.1582
RA_OF_ASC_NODE = 195.2855
ARG_OF_PERICENTER = 44.7600
MEAN_ANOMALY   = 315.3540

EPHEMERIS_TYPE = 0
CLASSIFICATION_TYPE = U
NORAD_CAT_ID   = 67854
ELEMENT_SET_NO = 999
REV_AT_EPOCH   = 443
BSTAR          = .14132E-2
MEAN_MOTION_DOT = .289388E-2
MEAN_MOTION_DDOT = 0

CCSDS_OMM_VERS = 2.0
CREATION_DATE  = 
ORIGINATOR     = 

OBJECT_NAME    = STARLINK-36838
OBJECT_ID      = 2026-034F
CENTER_NAME    = EARTH
REF_FRAME      = TEME
TIME_SYSTEM    = UTC
MEAN_ELEMENT_THEORY = SGP/SGP4

EPOCH          = 2026-03-12T21:19:56.216640
MEAN_MOTION    = 15.80994848
ECCENTRICITY   = .000144
INCLINATION    = 53.1584
RA_OF_ASC_NODE = 195.2799
ARG_OF_PERICENTER = 43.5872
MEAN_ANOMALY   = 316.5264

EPHEMERIS_TYPE = 0
CLASSIFICATION_TYPE = U
NORAD_CAT_ID   = 67855
ELEMENT_SET_NO = 999
REV_AT_EPOCH   = 444
BSTAR          = .12804E-2
MEAN_MOTION_DOT = .261276E-2
MEAN_MOTION_DDOT = 0

CCSDS_OMM_VERS = 2.0
CREATION_DATE  = 
ORIGINATOR     = 

OBJECT_NAME    = STARLINK-36843
OBJECT_ID      = 2026-034G
CENTER_NAME    = EARTH
REF_FRAME      = TEME
TIME_SYSTEM    = UTC
MEAN_ELEMENT_THEORY = SGP/SGP4

EPOCH          = 2026-03-12T19:46:44.560704
MEAN_MOTION    = 15.80995331
ECCENTRICITY   = .0001222
INCLINATION    = 53.1582
RA_OF_ASC_NODE = 195.5877
ARG_OF_PERICENTER = 50.5751
MEAN_ANOMALY   = 309.5380

EPHEMERIS_TYPE = 0
CLASSIFICATION_TYPE = U
NORAD_CAT_ID   = 67856
ELEMENT_SET_NO = 999
REV_AT_EPOCH   = 443
BSTAR          = .12756E-2
MEAN_MOTION_DOT = .260254E-2
MEAN_MOTION_DDOT = 0

CCSDS_OMM_VERS = 2.0
CREATION_DATE  = 
ORIGINATOR     = 

OBJECT_NAME    = STARLINK-36828
OBJECT_ID      = 2026-034H
CENTER_NAME    = EARTH
REF_FRAME      = TEME
TIME_SYSTEM    = UTC
MEAN_ELEMENT_THEORY = SGP/SGP4

EPOCH          = 2026-03-12T19:47:49.231104
MEAN_MOTION    = 15.80997774
ECCENTRICITY   = .0000835
INCLINATION    = 53.1582
RA_OF_ASC_NODE = 195.5927
ARG_OF_PERICENTER = 62.3321
MEAN_ANOMALY   = 297.7787

EPHEMERIS_TYPE = 0
CLASSIFICATION_TYPE = U
NORAD_CAT_ID   = 67857
ELEMENT_SET_NO = 999
REV_AT_EPOCH   = 443
BSTAR          = .12791E-2
MEAN_MOTION_DOT = .261035E-2
MEAN_MOTION_DDOT = 0

CCSDS_OMM_VERS = 2.0
CREATION_DATE  = 
ORIGINATOR     = 

OBJECT_NAME    = STARLINK-36837
OBJECT_ID      = 2026-034J
CENTER_NAME    = EARTH
REF_FRAME      = TEME
TIME_SYSTEM    = UTC
MEAN_ELEMENT_THEORY = SGP/SGP4

EPOCH          = 2026-03-12T19:45:39.827232
MEAN_MOTION    = 15.80987693
ECCENTRICITY   = .0000913
INCLINATION    = 53.1585
RA_OF_ASC_NODE = 195.5819
ARG_OF_PERICENTER = 52.3564
MEAN_ANOMALY   = 307.7542

EPHEMERIS_TYPE = 0
CLASSIFICATION_TYPE = U
NORAD_CAT_ID   = 67858
ELEMENT_SET_NO = 999
REV_AT_EPOCH   = 443
BSTAR          = .12442E-2
MEAN_MOTION_DOT = .253552E-2
MEAN_MOTION_DDOT = 0

CCSDS_OMM_VERS = 2.0
CREATION_DATE  = 
ORIGINATOR     = 

OBJECT_NAME    = STARLINK-36393
OBJECT_ID      = 2026-034K
CENTER_NAME    = EARTH
REF_FRAME      = TEME
TIME_SYSTEM    = UTC
MEAN_ELEMENT_THEORY = SGP/SGP4

EPOCH          = 2026-03-12T22:46:40.130112
MEAN_MOTION    = 15.80881068
ECCENTRICITY   = .0003162
INCLINATION    = 53.1587
RA_OF_ASC_NODE = 194.9434
ARG_OF_PERICENTER = 34.6774
MEAN_ANOMALY   = 325.4455

EPHEMERIS_TYPE = 0
CLASSIFICATION_TYPE = U
NORAD_CAT_ID   = 67859
ELEMENT_SET_NO = 999
REV_AT_EPOCH   = 445
BSTAR          = .32414E-3
MEAN_MOTION_DOT = .63786E-3
MEAN_MOTION_DDOT = 0

CCSDS_OMM_VERS = 2.0
CREATION_DATE  = 
ORIGINATOR     = 

OBJECT_NAME    = STARLINK-35873
OBJECT_ID      = 2026-034L
CENTER_NAME    = EARTH
REF_FRAME      = TEME
TIME_SYSTEM    = UTC
MEAN_ELEMENT_THEORY = SGP/SGP4

EPOCH          = 2026-03-12T22:45:34.365888
MEAN_MOTION    = 15.81004240
ECCENTRICITY   = .0000935
INCLINATION    = 53.1584
RA_OF_ASC_NODE = 194.9378
ARG_OF_PERICENTER = 69.8378
MEAN_ANOMALY   = 290.2746

EPHEMERIS_TYPE = 0
CLASSIFICATION_TYPE = U
NORAD_CAT_ID   = 67860
ELEMENT_SET_NO = 999
REV_AT_EPOCH   = 448
BSTAR          = .14635E-2
MEAN_MOTION_DOT = .300225E-2
MEAN_MOTION_DDOT = 0

